,Name,Address,District,Type,Lat,Long
0,Alila SCBD Jakarta,"Jl. Jend. sudirman kav 52-53 No.11, Senayan, Kec. Kby. Baru, Kota Jakarta Selatan, Daerah Khusus Ibukota Jakarta 12190",South Jakarta,Hotel,-6.2255022,106.8083302
1,All Sedayu,"Jalan Raya Boulevard Barat, Kelapa Gading Mall of Indonesia Lobby 5, RT.18/RW.8, Klp. Gading Bar., Kec. Klp. Gading, Daerah Khusus Ibukota Jakarta 14240",North Jakarta,Hotel,-6.1520522,106.8918648
2,Aloft Jakarta Wahid Hasyim,"Jl. KH Wahid Hasyim No.92, Kb. Sirih, Kec. Menteng, Kota Jakarta Pusat, Daerah Khusus Ibukota Jakarta 10340",Central Jakarta,Hotel,-6.1863149,106.8272149
3,Ambhara Hotel,"Jl. Iskandarsyah Raya No.1, RW.2, Melawai, Kec. Kby. Baru, Kota Jakarta Selatan, Daerah Khusus Ibukota Jakarta 12160",South Jakarta,Hotel,-6.2433604,106.803287
4,Arcadia by Horison,"Jl. Tiangseng No.73, RW.6, Mangga Dua Sel., Kecamatan Sawah Besar, Kota Jakarta Pusat, Daerah Khusus Ibukota Jakarta 10730",Central Jakarta,Hotel,-6.13820525,106.822735
5,Aryaduta Hotel Jakarta,"Jl. Prajurit KKO Usman dan Harun No.44-48, RT.7/RW.1, Gambir, Kecamatan Gambir, Jakarta, Daerah Khusus Ibukota Jakarta 10110",Central Jakarta,Hotel,-6.2201581,106.8160027
6,Aston Kemayoran City Hotel,"Jl. HBR Motik No.4, Gn. Sahari Sel., Kec. Kemayoran, Kota Jakarta Pusat, Daerah Khusus Ibukota Jakarta 10610",Central Jakarta,Hotel,-6.154328215,106.8457068
7,Ayana Mid Plaza,"Jl. Jenderal Sudirman Blok 10-11, RT.10/RW.11, Karet Tengsin, Kecamatan Tanah Abang, Kota Jakarta Pusat, Daerah Khusus Ibukota Jakarta 10220",Central Jakarta,Hotel,-6.208931761,106.8197659
8,Best Western Kemayoran,"Jl. Benyamin Suaeb No.5, RT.13/RW.6, Kb. Kosong, Kec. Kemayoran, Kota Jakarta Pusat, Daerah Khusus Ibukota Jakarta 10630",Central Jakarta,Hotel,-6.1609676,106.8528811
9,Best Western Premier The Hive,"Jl. DI. Panjaitan No.Kav. 3-4, RT.7/RW.11, Cipinang Cempedak, Kecamatan Jatinegara, Kota Jakarta Timur, Daerah Khusus Ibukota Jakarta 13340",East Jakarta,Hotel,-6.244550334,106.8754725
10,Blue Sky Petamburan,"Jl. K.S. Tubun No.19, RT.5/RW.6, Petamburan, Kecamatan Tanah Abang, Kota Jakarta Pusat, Daerah Khusus Ibukota Jakarta 10260",Central Jakarta,Hotel,-6.19993255,106.8019503
11,Fairmont Jakarta,"Jl. Asia Afrika No.8, Senayan, Kecamatan Tanah Abang, Kota Jakarta Pusat, Daerah Khusus Ibukota Jakarta 10270",South Jakarta,Hotel,-6.221804645,106.7990578
12,Gran Melia Jakarta,"Jl. H. R. Rasuna Said No.5 4, RT.5/RW.4, Kuningan Tim., Kecamatan Setiabudi, Kota Jakarta Selatan, Daerah Khusus Ibukota Jakarta 12950",South Jakarta,Hotel,-6.23506595,106.8303183
13,Grand Hyatt Jakarta,"Jl. M.H. Thamrin, RT.9/RW.5, Gondangdia, Kec. Menteng, Kota Jakarta Pusat, Daerah Khusus Ibukota Jakarta 10350",Central Jakarta,Hotel,-6.1938884,106.8220257
14,Grand Mercure Harmoni,"Jl. Hayam Wuruk No.36 - 37, Kb. Klp., Kecamatan Gambir, Kota Jakarta Pusat, Daerah Khusus Ibukota Jakarta 10120",Central Jakarta,Hotel,-6.16014495,106.8199518
15,Grand Mercure Jakarta Kemayoran,"Jl H Benyamin Sueb Kav B6 Superblok Mega,Jalan Kota Baru Bandar Kemayoran, Jl. Benyamin Suaeb, RW.10, South Gunung Sahari, Kemayoran, Central Jakarta City, Jakarta 10610",Central Jakarta,Hotel,-6.15378525,106.8497295
16,Grand Sahid Jaya Jakarta,"Jl. Jenderal Sudirman No.86, RT.10/RW.11, Karet Tengsin, Kecamatan Tanah Abang, Kota Jakarta Pusat, Daerah Khusus Ibukota Jakarta 10220",Central Jakarta,Hotel,-6.21083075,106.8194998
17,Harris Suite Puri Mansion,"Jl. Puri Lkr. Luar, Kec. Kembangan, Daerah Khusus Ibukota Jakarta 11610",West Jakarta,Hotel,-6.180118777,106.7242338
18,Hotel Borobudur Jakarta,"Jl. Lap. Banteng Selatan No.1, Ps. Baru, Kecamatan Sawah Besar, Kota Jakarta Pusat, Daerah Khusus Ibukota Jakarta 10710",Central Jakarta,Hotel,-6.1723652,106.8344121
19,Hotel Indonesia Kempinski Jakarta,"Jl. M.H. Thamrin No.1, RT.1/RW.5, Menteng, Kec. Menteng, Kota Jakarta Pusat, Daerah Khusus Ibukota Jakarta 10310",Central Jakarta,Hotel,-6.195729,106.8224515
20,InterContinental Jakarta Pondok Indah,"Jl. DR. Ide Anak Agung Gde Agung Kav.
E.1.1 No. 1, Mega Kuningan, Jakarta, 12950",South Jakarta,Hotel,-6.265548586,106.7828077
21,JS Luwansa Hotel Jakarta,"Jl. H. R. Rasuna Said No.22, RT.2/RW.5, Karet Kuningan, Kecamatan Setiabudi, Kota Jakarta Selatan, Daerah Khusus Ibukota Jakarta 12940",South Jakarta,Hotel,-6.2228538,106.833181
22,Le Meridien Jakarta,"Jl. Jenderal Sudirman No.Kav 18 - 20, Karet Tengsin, Kecamatan Tanah Abang, Jakarta, Daerah Khusus Ibukota Jakarta 10220",Central Jakarta,Hotel,-6.21327215,106.8187206
23,Mandarin Oriental Jakarta,"Jl. M.H. Thamrin, Menteng, Kec. Menteng, Jakarta, Daerah Khusus Ibukota Jakarta 10310",Central Jakarta,Hotel,-6.1960325,106.8236526
24,Mercure Jakarta Batavia,"Jl. Kali Besar Barat No.44 46, RW.3, Roa Malaka, Kec. Tambora, Kota Jakarta Barat, Daerah Khusus Ibukota Jakarta 11230",West Jakarta,Hotel,-6.1322953,106.8102579
25,Mercure Jakarta Simatupang,"Jl. R.A. Kartini No.18, Lb. Bulus, Kec. Cilandak, Kota Jakarta Selatan, Daerah Khusus Ibukota Jakarta 12440",South Jakarta,Hotel,-6.29082655,106.7800108
26,Mercure Kota,"Jl. Hayam Wuruk No.123, RT.4/RW.6, Mangga Besar, Kec. Taman Sari, Kota Jakarta Barat, Daerah Khusus Ibukota Jakarta 11180",West Jakarta,Hotel,5.9884543,116.0794754
27,Millennium Hotel Sirih Jakarta,"Jl. H. Fachrudin No.3, Kp. Bali, Kecamatan Tanah Abang, Jakarta, Daerah Khusus Ibukota Jakarta 10250",Central Jakarta,Hotel,-6.18269145,106.8167421
28,Mulia Hotel Jakarta,"Jalan Asia Afrika Senayan, RT.1/RW.3, Gelora, Kecamatan Tanah Abang, Kota Jakarta Pusat, Daerah Khusus Ibukota Jakarta 10270",Central Jakarta,Hotel,-6.2151023,106.7970006
29,Novotel Jakarta Cikini,"Jl. Cikini Raya No.107, RT.10/RW.4, Cikini, Kec. Menteng, Kota Jakarta Pusat, Daerah Khusus Ibukota Jakarta 10330",Central Jakarta,Hotel,-6.1955005,106.8405847
30,Novotel Mangga Dua,"Jl. Gn. Sahari No.1, RW.6, Ancol, Jakarta, Kota Jkt Utara, Daerah Khusus Ibukota Jakarta 14420",North Jakarta,Hotel,-6.1381756,106.8318856
31,Pullman Jakarta Indonesia,"Jl. M.H. Thamrin No.59, Gondangdia, Kec. Menteng, Jakarta, Daerah Khusus Ibukota Jakarta 10350",Central Jakarta,Hotel,-6.1931781,106.8238174
32,Raffles Jakarta,"Jl. Prof. DR. Satrio No.Kav 3 â€“ 5, Karet Kuningan, Kecamatan Setiabudi, Daerah Khusus Ibukota Jakarta 12940",South Jakarta,Hotel,-6.22412095,106.8239317
33,Shangri-La Hotels,"Jl. Jenderal Sudirman No.Kav. 1, Karet Tengsin, Kecamatan Tanah Abang, Kota Jakarta Pusat, Daerah Khusus Ibukota Jakarta 10220",Central Jakarta,Hotel,21.6229472,39.1082413
34,Sheraton Grand Jakarta Gandaria City,"Jl. Arteri Pd. Indah, Kby. Lama Utara, Kec. Kby. Baru, Jakarta, Daerah Khusus Ibukota Jakarta 12240",South Jakarta,Hotel,-6.2452177,106.7830538
35,Swiss-Belhotel Mangga Besar,"Jl. Kartini Raya No.57, RT.3/RW.2, Kartini, Kecamatan Sawah Besar, Kota Jakarta Pusat, Daerah Khusus Ibukota Jakarta 10750",Central Jakarta,Hotel,-6.149578433,106.8341106
36,Swiss-Belresidences Kalibata,"Jl. Raya Kalibata No.22, Rawajati, Kec. Pancoran, Kota Jakarta Selatan, Daerah Khusus Ibukota Jakarta 12740",South Jakarta,Hotel,-6.255522148,106.8560317
37,The 1O1 Jakarta Sedayu Darmawangsa,"Jl. Darmawangsa 6 No.14, RT.5/RW.1, Pulo, Kec. Kby. Baru, Kota Jakarta Selatan, Daerah Khusus Ibukota Jakarta 12160",South Jakarta,Hotel,-6.253891653,106.8017235
38,The Mayflower - Mariott Executive Apartments,"Indofood Tower, Sudirman Plaza, Jl. Jenderal Sudirman No.Kav 76-78, Jakarta 12910",South Jakarta,Hotel,-6.208144524,106.8225309
39,The Ritz-Carlton Jakarta Mega Kuningan,"Jl. DR. Ide Anak Agung Gde Agung Kav.E, Jakarta, Jl. Mega Kuningan Barat No.1, Daerah Khusus Ibukota Jakarta 12950",South Jakarta,Hotel,-6.22852835,106.8271551
40,The Sultan Hotel & Residence Jakarta,"Jl. Gatot Subroto, RT.1/RW.3, Gelora, Kecamatan Tanah Abang, Kota Jakarta Pusat, Daerah Khusus Ibukota Jakarta 10270",Central Jakarta,Hotel,-6.218045073,106.8089642
41,Wyndham Casablanca Jakarta Hotel and Residence,"Jl. Raya Casablanca No.18, RT.4/RW.12, Menteng Dalam, Kec. Tebet, Kota Jakarta Selatan, Daerah Khusus Ibukota Jakarta 12870",South Jakarta,Hotel,-6.224386953,106.8398461
