Name,Address,District,Type,Lat,Long
Pasar Baru,"Jl. H. Samanhudi Kel.Pasar Baru
telp: 3845177",Central Jakarta,Market,-6.164901,106.8334669
Pasar Bendungan Hilir,"Jl. Bendungan Hilir Raya Kel.Bendungan Hilir Kec.Tanah Abang. Kode-pos 10210
telp: 5733574",Central Jakarta,Market,-6.2153863,106.8149685
Pasar Blora,"Jl. Kendal No.25 Kel.Menteng Kec.Menteng
telp: 3903868",Central Jakarta,Market,-6.2017923,106.8237853
Pasar Cideng Thomas,"Jl. Tanah Abang V Kel.Petojo Selatan Kec.Gambir
telp: 3450147",Central Jakarta,Market,-6.179838,106.8133731
Pasar Cikini Ampiun,"Jl. Pegangsaan Timur Kel.Pegangsaan Kec.Menteng. Kode-pos 10330
telp: 3142084",Central Jakarta,Market,-6.198541009,106.8415434
Pasar Gandaria,"Jl. Kebon Kacang I Kel.Kebon Kacang Kec.Tanah Abang
telp : -",Central Jakarta,Market,-6.1882798,106.8184744
Pasar Gondangdia,"Jl. Sri Kaya Raya Kel.Kebon Sirih Kec.Menteng
telp: 3927723",Central Jakarta,Market,-6.1964579,106.8399432
Pasar Hias Rias Cikini,"Jl. Cikini Raya No.90 Kel.Cikini Kec.Menteng
telp: 3900390",Central Jakarta,Market,-6.196171308,106.8399779
Pasar Jl. Surabaya,"Jl. Surabaya Kel.Menteng Kec.Menteng
telp : -",Central Jakarta,Market,-0.5032645,117.1494434
Pasar Kenari,"Jl. Salemba Raya
telp : -",Central Jakarta,Market,-6.2703473,106.842958
Pasar Lontar / Kb.Melati,"Jl. H. Sabeni Raya Kel.Kebon Melati Kec.Tanah Abang . Kode-pos 103992
telp : -",Central Jakarta,Market,-6.193203936,106.8127292
Pasar Palmerah,"Jl. Hayam Wuruk No.100 Kel.Mangga Besar Kec.Taman Sari. Kode-pos 11120
telp: 5492405",Central Jakarta,Market,-6.2080218,106.7959483
Pasar Paseban,"Jl. Salemba Raya, 014/005 Kel.Paseban Kec.Senen. Kode-pos 10440
telp: 3157077",Central Jakarta,Market,-6.1921356,106.8486652
Pasar Petojo Enclek,"Jl. Suryo Pranoto Gg.IX Kel.Petojo Selatan Kec.Gambir
telp : -",Central Jakarta,Market,-6.170649018,106.8173085
Pasar Petojo Ilir,"Jl. A.M. Sangaji, No.16-18, 003/04 Kel.Petojo Utara Kec.Gambir. Kode-pos 11250
telp: 6329375",Central Jakarta,Market,-6.162924724,106.8122889
Pasar Pramuka Pojok,"Jl. Salemba Raya No.79, 001/05 Kel.Paseban Kec.Senen
telp : -",Central Jakarta,Market,-6.197233492,106.857659
Pasar Tanah Abang Bukit,"Jl. K.H. Fachrudin Kel.Kampung Bali Kec. Tanah Abang. Kode-pos 141303
telp : -",Central Jakarta,Market,-6.184175999,106.8148145
Pasar Cempaka Putih,"Jl. Cempaka Putih Barat III
telp : -",Central Jakarta,Market,-6.1723085,106.8624413
Pasar Gardu Asem,"Jl. Gardu Asem Kel.Kemayoran Kec.Kemayoran Kode-pos 10620
telp : -",Central Jakarta,Market,-6.1649033,106.8472583
Pasar Gembrong,"Jl. Pangkalan Asem Kel.Cempaka Putih Barat Kec.Cempaka Putih. Kode-pos 10520
telp: 4249671",Central Jakarta,Market,-6.2262344,106.8810561
Pasar Jatirawasari,"Jl. Mardani Raya Kel.Cempaka Putih Barat Kec.Cempaka Putih. Kode-pos 10520
telp : -",Central Jakarta,Market,-6.183492501,106.8636625
Pasar Jembatan Merah,"Jl. Kartini Raya Kel.Mangga Dua Selatan Kec.Sawah Besar
telp: 6011584",Central Jakarta,Market,-6.1486801,106.8256211
Pasar Johar Baru,"Jl.Johar Baru II
telp : -",Central Jakarta,Market,-6.1854264,106.8555493
Pasar Karang Anyar,"Jl. Karang Anyar Raya Kel.Karang Anyar Kec.Sawah Besar
telp: 6286325",Central Jakarta,Market,-6.15714795,106.8280048
Pasar Kombongan,"Jl. Bungur Besar Gg.XVII, 001/01 Kel.Gunung Sahari Selatan Kec.Kemayoran
telp : -",Central Jakarta,Market,-6.16122365,106.8409694
Pasar Kwitang Dalam,"Jl. Kramat Kwitang I, 009/09 Kel.Kwitang Dalam Kec.Senen. Kode-pos 10420
telp : -",Central Jakarta,Market,-6.184541848,106.841121
Pasar Nangka Bungur,"Jl. Kalibaru Timur, 006/09 Kel.Utan Panjang Kec.Kemayoran. Kode-pos 10650
telp: 42880259",Central Jakarta,Market,-6.1678779,106.8496093
Pasar Rajawali,"Jl. Rajawali Selatan
telp : -",Central Jakarta,Market,-6.175173,106.5671586
Pasar Rawasari/Rawa Kerbo,"Jl. Rawasari Selatan
telp : -",Central Jakarta,Market,-6.185245691,106.87162
Pasar Serdang,"Jl. Serdang Baru II, 014/05 Kel.Serdang Kec.Kemayoran. Kode-pos 10650
telp: 4261385",Central Jakarta,Market,-6.156449619,106.8647126
Pasar Sumur Batu,"Jl. Sumur Batu Raya, 001/01 Kel.Sumur Batu Kec.Kemayoran. Kode-pos 10640
telp: 42801182",Central Jakarta,Market,-6.1644365,106.8644599
Pasar Tanah Tinggi Poncol,"Jl. Letjen Suprapto Kel.Bungur Kec.Senen. Kode-pos 10460
telp : -",Central Jakarta,Market,-6.174461917,106.8455955
Pasar Timbul Kartini,"Jl. Sumur Batu Raya Kel.Kartni Kec.Sawah Besar.Kode-pos 10750
telp: 3103992",Central Jakarta,Market,-6.151483,106.8307398
Pasar Asem Reges,"Jl. Taman Sari Raya, No.40 Kel.Taman Sari Kec.Taman Sari. Kode-pos 11150
telp: 6292796",West Jakarta,Market,-6.15796975,106.8265238
Pasar Gang Kancil,"Jl. Keamanan Kel.Keagungan Kec.Taman Sari. Kode-pos 11130
telp: 6321023",West Jakarta,Market,-6.3156835,106.8803183
Pasar Jembatan Besi,"Jl. Jembatan Besi II Kel.Jembatan Besi Kec.Tambora. Kode-pos 11320
telp: 63850384",West Jakarta,Market,-6.1503907,106.7971685
Pasar Jembatan Lima,"Jl. K.H. Moch. Mansyur 011/01 Kel.Jembatan Lima Kec.Tambora. Kode-pos 11250
telp: 6336623",West Jakarta,Market,-6.1418915,106.8066117
Pasar Mangga Besar,"Jl. Kebon Jeruk XIX Kel.Maphar Kec.Taman Sari. Kode-pos 11160
telp: 6257071",West Jakarta,Market,-6.1507711,106.81931
Pasar Pagi,"Jl. Petak Baru Pasar Pagi Kel.Roa Malaka Kec.Tambora. Kode-pos 11230
telp: 6927675",West Jakarta,Market,-0.5011398,117.1476095
Pasar Pecah Kulit,"Jl. Mangga Besar IX Kel.Pinangsia Kec.Taman Sari
telp: 6598322",West Jakarta,Market,-6.1415203,106.8215038
Pasar Penjagalan,"Jl. Penjagalan Raya No.14 Kel.Pekojan Kec.Tambora. Kode-pos 11240
telp : -",West Jakarta,Market,-6.134237,106.7762867
Pasar Perniagaan,"Jl. Perniagaan Kel.Tambora Kec.Tambora
telp: 6902281",West Jakarta,Market,3.1876268,101.6431499
Pasar Sawah Besar,"Jl. Sawah Besar I/II Kel.Maphar Kec.Taman Sari
telp: 6258129",West Jakarta,Market,-6.15898255,106.8206052
Pasar Bojong Indah,"Jl. Pakis Raya, 009/06 Kel.Rawa Buaya Kec.Cengkareng. Kode-pos 11740
telp : -",West Jakarta,Market,-6.16159885,106.7412979
Pasar Cengkareng,"Jl. Bangun Nusa, 001/02 Kel.Cengkareng Timur Kec.Cengkareng. Kode-pos 11730
telp: 6196598",West Jakarta,Market,-6.17888555,106.7221309
Pasar Citra Garden,"Jl. Perumahan Citra Garden I Ext. 008/015 Kel.Kalideres Kec.Kalideres. Kode-pos 11840
telp: 5442316",West Jakarta,Market,-6.151098722,106.6968667
Pasar Duta Mas,"Jl. Komplek Perumahan Duta Mas, 002/09 Kel.Wijaya Kusuma Kec.Grogol Petamburan. Kode-pos 11460
telp: 5677416",West Jakarta,Market,-6.1502835,106.7800568
Pasar Ganefo,"Jl. Utama Raya No.1, 009/01 Kel.Cengkareng Barat Kec.Cengkareng. Kode-pos 11730
telp: 5441754",West Jakarta,Market,3.5699972,98.6975392
Pasar Grogol,"Jl. DR. Muwardi IV Kel.Grogol Kec.Grogol Petamburan. Kode-pos 11450
telp: 5672487",West Jakarta,Market,-6.1627764,106.797192
Pasar Jelambar Polri,"Jl. Kavling Polri Kel.Wijaya Kusuma Kec.Grogol Petamburan. Kode-pos 11460
telp: 56964059",West Jakarta,Market,-6.160542862,106.7787709
Pasar Jembatan Dua,"Jl. Tubagus Angke, 005/09 Kel.Angke Kec.Tambora. Kode-pos 11330
telp: 63861172",West Jakarta,Market,-6.14349835,106.7922584
Pasar Kalideres,"Jl. Benda Raya Kel.Kalideres Kec.Kalideres. Kode-pos 11840
telp: 54075441",West Jakarta,Market,-6.1524887,106.7037783
Pasar Kampung Duri,"Jl. Duri Raya, 001/03 Kel.Duri Selatan Kec.Tambora. Kode-pos 11270
telp : -",West Jakarta,Market,-6.1615269,106.8045897
Pasar Kedoya,"Jl. Kedoya Raya, 008/08 Kel.Kedoya Utara Kec.Kebon Jeruk. Kode-pos 11520
telp: 5463870",West Jakarta,Market,-6.1637458,106.7648045
Pasar Pos Pengumben,"Jl. Z.Z. Kel.Sukabumi Selatan Kec.Kebon Jeruk. Kode-pos 11560
telp: 9225698",West Jakarta,Market,-6.21772695,106.7693256
Pasar Slipi,"Jl. Anggrek Garuda Kel.Kemanggisan Kec.Pal Merah
telp: 5492405",West Jakarta,Market,-6.1902909,106.795946
Pasar Timbul Barat,"Jl. Tomang Tinggi Raya Kel.Tomang Kec.Grogol Petamburan. Kode-pos 11440
telp : -",West Jakarta,Market,-6.1724481,106.7952536
Pasar Anyar Bahari,"Jl. Teggiri Raya Tj. Priok Kel.Tanjung Priok Kec.Tanjung Priok
telp: 4352928",North Jakarta,Market,-6.1148329,106.8791101
Pasar Ikan Luar Batang,"Jl. Pasar Ikan Los BKS 14-15, 011/04 Kel.Penjaringan Kec.Penjaringan. Kode-pos 14440
telp: 6621556",North Jakarta,Market,-6.125841354,106.808564
Pasar Kebon Bawang,"Jl. Swasembada Barat XVI, 003/14 Kel.Kebo Bawang Kec.Tanjung Priok
telp : -",North Jakarta,Market,-6.1141846,106.8924169
Pasar Muara Angke,"Jl. Dermaga I Muara Angke Kel.Pluit Kec.Penjaringan
telp : -",North Jakarta,Market,-6.10581965,106.77481
Pasar Pademangan Barat,"Jl. Waspada Raya No.1 Kel.Pademangan Kec.Penjaringan. Kode-pos 14420
telp : -",North Jakarta,Market,-6.13492415,106.8402269
Pasar Pademangan Timur,"Jl. Pademanngan III , 004/02 Kel.Pademangan Timur Kec.Pademangan
telp: 6453657",North Jakarta,Market,-6.1354124,106.8435084
Pasar Pantai Indah Kapuk (PIK),"Jl. Pantai Indah Timur
telp : -",North Jakarta,Market,-6.128282706,106.7537037
Pasar Pelita,"Jl. Raya Sungai Bambu Kel.Sungai Bambu Kec.Tanjung Priok
telp : -",North Jakarta,Market,1.14257955,104.018449
Pasar Pluit,"Jl. Pluit Kencana Kel.Pluit Kec.Penjaringan.Kode-pos 14450
telp: 66693267",North Jakarta,Market,-6.12120285,106.7889933
Pasar Sungai Bambu,"Jl. Sungai Bambu, 003/01 Kel.Papanggo Kec.Tanjung Priok
telp: 4988371",North Jakarta,Market,-6.12735595,106.8836654
Pasar Sunter Podomoro,"Jl. Sunter Karya Utara II Kel.Sunter Agung Kec.Tanjung Priok. Kode-pos 14350
telp: 6410286",North Jakarta,Market,-6.1390785,106.8705971
Pasar Teluk Gong,"Jl.Teluk Gong Raya, 009/08 Kel.Penjagalan Kec.Penjaringan. Kode-pos 14450
telp: 6625235",North Jakarta,Market,-6.1377294,106.7819772
Pasar Walang Baru,"Jl. Alur Laut, 009/05 Kel.Rawa Badak Selatan Kec.Koja Utara
telp : -",North Jakarta,Market,-6.12647825,106.8989147
Pasar Cilincing,"Jl. Kesatriaan, 005/05 Kel.Cilincing Kec.Cilincing. Kode-pos 14120
telp : -",North Jakarta,Market,-6.1042557,106.9176695
Pasar Kali Baru,"Jl. Kosambi Timur II Kel.Kali Baru Kec.Cilincing
telp: 9177446",North Jakarta,Market,-6.3726842,106.8617606
Pasar Kelapa Gading,"Jl. Askes Ps. Inpres, 006/06 Kel.Kelapa Gading Timur Kec.Kelapa Gading
telp: 9255426",North Jakarta,Market,-1.4986603,102.1259356
Pasar Koja Baru,"Jl. Bhayangkara Kel.Tugu Utara Kec.Koja, Kode-pos 14270
telp: 4302080",North Jakarta,Market,-6.1215345,106.9158715
Pasar Kramatjaya,"Jl. Belimbing Raya
telp : -",North Jakarta,Market,-6.268596392,106.8672482
Pasar Lontar,"Jl Mangga / Manggar Kel.Tugu Utara Kec.Koja Utara. Kode-pos 14260
telp: 43011747",North Jakarta,Market,-6.11906755,106.9104872
Pasar Mandiri Kelapa Gading,"Jl. Kelapa Gading
telp : -",North Jakarta,Market,-6.17123975,106.9022413
Pasar Muncang,"Jl. Magga / Manggar Kel.Lagoa Kec.Koja Utara
telp : -",North Jakarta,Market,-6.5278589,106.3804055
Pasar Rawa Badak,"Jl. Anggrek, 006/03 Kel.Rawa Badak Utara Kec.Koja Utara
telp: 43935251",North Jakarta,Market,-6.11496385,106.8956183
Pasar Sinar,"Jl. Lagoa Terusan Kel.Lagoa Kec.Koja Utara
telp : -",North Jakarta,Market,-6.11183195,106.9079163
Pasar Sindang,"Jl. Sindang Raya, 010/08 Kel.Koja Kec.Koja Utara
telp: 4300080",North Jakarta,Market,-6.11158575,106.8967462
Pasar Sukapura,"Jl. Tipar Cakung Kel.Sukapura Kec.Cilincing
telp: 4417448",North Jakarta,Market,-6.14094055,106.9224731
Pasar Tugu,"Jl. Kramat Raya Tj. Priok Kel.Tugu Utara Kec.Koja Utara
telp: 9240387",North Jakarta,Market,-6.1269855,106.9176588
Pasar Waru,"Jl. Raya Cilincing Kel.Lagoa Kec.Koja Utara
telp: 4374247",North Jakarta,Market,-6.109340691,106.914968
Pasar Blok A,"Jl. R.S. Fatmawati Raya, 008/09 Kel.Pulo Kec.Kebayoran Baru
telp: 7393088",South Jakarta,Market,-6.255897743,106.7965549
Pasar Bata Putih,"Jl. Kramat I, 003/02 Kel.Grogol Selatan Kec.Kebayoran Lama. Kode-pos 12220
telp: 72792352",South Jakarta,Market,-6.2350331,106.7840099
Pasar Blok M (Melawai),"Jl. Melawai V Kel.Melawai Kec.Kebayoran Baru
telp: 7262295",South Jakarta,Market,-6.244031514,106.8019474
Pasar Cidodol,"Jl. Cidodol Raya Kel.Grogol Selatan Kec.Kebayoran Lama. Kode-pos 12230
telp: 7394166",South Jakarta,Market,-6.2334801,106.7714824
Pasar Cipete,"Jl. R.S. Fatmawati Raya, 005/01 Kel.Cipete Selatan Kec.Kebayoran Baru
telp: 7200200",South Jakarta,Market,-6.27869335,106.8081645
Pasar Mayestik,"Jl.Tebah III Kel.Gunung Kec.Kebayoran Baru
telp: 7209918 / 7222294",South Jakarta,Market,-6.2409207,106.7909668
Pasar Mede,"Jl. R.S. Fatmawati Raya, 002/03 Kel.Cilandak Barat Kec.Cilandak
telp: 75901619",South Jakarta,Market,-6.2868287,106.7952288
Pasar Pesanggrahan,"Jl. Garuda, 007/014 Kel.Pesanggrahan Kec.Pesanggrahan
telp : -",South Jakarta,Market,-6.25192445,106.7559673
Pasar Pondok Indah,"Jl. Ciputat Raya Kel. Pondok Pinang Kec.Kebayoran Lama
telp: 7666081",South Jakarta,Market,-6.26191555,106.7760783
Pasar Radio Dalam,"Jl. R.R.I Kel. Gandaria Utara Kec. Kebayoran Baru
telp: 7224344",South Jakarta,Market,-6.2585371,106.7912942
Pasar Shanta,"Jl. Cipaku I Kel.Petogogan Kec.Kebayoran Baru. Kode-pos 12730
telp: 7232199",South Jakarta,Market,-6.239826856,106.8121331
Pasar Bukit Duri Puteran,"Jl. Bukit Duri Tebet Kel.Bukit Duri Kec.Tebet.Kode-pos 12730
telp: 8280313",South Jakarta,Market,-6.218181449,106.8540561
Pasar Cipete Selatan,"Jl. Pangeran Antasari Kel.Cilandak Barat Kec.Cilandak
telp: 75403815",South Jakarta,Market,-6.27869335,106.8081645
Pasar Karet Belakang,"Jl. Karet Belakang Raya Kel.Karet Kec.Setiabudi
telp: 5201516",South Jakarta,Market,-6.21370855,106.8260293
Pasar Karet Pedurenan,"Jl. Karet Sawah Kel.Karet Semanggi Kec.Setiabudi. Kode-pos 12930
telp : -",South Jakarta,Market,-6.22102535,106.8199566
Pasar Lenteng Agung,"Jl. Jagakarsa Raya Kel.Jagakarsa Kec.Jagakarsa. Kode-pos 12620
telp: 7270211",South Jakarta,Market,-6.30347,106.8395362
Pasar Mampang Prapatan,"Jl. Buncit Raya Kel.Mampang Prapatan Kec.Mampang Prapatan
telp: 7995683",South Jakarta,Market,-6.2409519,106.8251723
Pasar Manggis,"Jl. Guntur Kel.Pasar Manggis Kec.Setiabudi. Kode-pos 12970
telp : -",South Jakarta,Market,-6.21087575,106.8423702
Pasar Menteng Pulo,"Jl. Menteng Pulo Kel.Menteng Atas Kec.Setiabudi. Kode-pos 12960
telp: 9211113",South Jakarta,Market,-6.2212266,106.8452508
Pasar Pondok Labu,"Jl. R.S. Fatmawati Ujung Kel.Pondok Labu Kec.Cilandak. Kode-pos 12450
telp: 7505859",South Jakarta,Market,-6.31226935,106.7937314
Pasar Rumput,"Jl. Raya Sultan Agung No.4 Kel.Pasar Manggis Kec.Setiabudi. Kode-pos 12970
telp: 8296376",South Jakarta,Market,-6.2078848,106.8394248
Pasar Tebet Barat,"Jl. Tebet Barat Dalam raya No.57-59 Kel.Tebet Barat Kec. Tebet Selatan. Kode-pos 12810
telp: 8304802",South Jakarta,Market,-6.2393729,106.8482889
Pasar Tebet Timur,"Jl. Tebet Timur Dalam Ray, 004/05 Kel.Tebet Timur Kec.Tebet. Kode-pos 12820
telp: 8318924",South Jakarta,Market,-6.2347638,106.8566073
Pasar Warung Buncit,"Jl. Duren Bangka Kel.Bangka Kec.Mampang Prapatan. Kode-pos 12730
telp : -",South Jakarta,Market,-6.25503805,106.8246323
Pasar Burung,"Jl. Penggalang Pal Kel.Meriam Kec.Matraman. Kode-pos 13140
telp: 8581857",East Jakarta,Market,-6.5872725,110.660456
Pasar Cawang Kavling,"Jl. Cawang Baru Utara Kel.Cipinang Cempedak Kec.Jatinegara
telp: 8505185 / 85904317",East Jakarta,Market,-6.242315912,106.874036
Pasar Cibubur,"Jl. Raya Lapangan Tembak Kel.Cibubur Kec.Ciracas. Kode-pos 13720
telp: 8711305 / 87708608",East Jakarta,Market,-6.3445673,106.8709187
Pasar Cijantung,"Jl. Beringin
telp: 8413411",East Jakarta,Market,-6.3220385,106.8581623
Pasar Ciplak,"Jl. Pancawarga I Kel.Cipinang Besar Selatan Kec.Jatinegara
telp: 8504734 / 8575685",East Jakarta,Market,-6.1571077,106.4225999
Pasar Ciracas,"Jl. Raya Ciracas Kel.Ciracas Kec.Ciracas
telp: 8711067 / 8703808",East Jakarta,Market,-6.3296346,106.8766039
Pasar Enjo,"Jl. Pisangan Lama II Kel.Pisangan Timur Kec.Pulo Gadung.Kode-pos 13230
telp: 4880786 / 4755414",East Jakarta,Market,-6.2148628,106.8783117
Pasar Jambul,"Jl. SMU XIV Kel.Cililitan Kec.Kramat Jati. Kode-pos 13640
telp: 80870987",East Jakarta,Market,-6.256467,106.8655646
Pasar Lokomotif,"Jl. Jatinegara Barat Rawabunga
telp: 8197064",East Jakarta,Market,-6.5515783,107.44618
Pasar Matraman Kebon kosong,"Jl. Penggalang Kel.Pal Meriam Kec.Matraman. Kode-pos 13140
telp: 8581857",East Jakarta,Market,-6.1982618,106.8571284
Pasar Pal Meriam,"Jl. Pal Meriam Kel.Pal Meriam Kec.Matraman
telp: 8564618",East Jakarta,Market,-6.20521902,106.8605137
Pasar Pramuka,"Jl. Pramuka Raya Ps. Pramuka Kel.Pal Meriam Kec.Matraman. Kode-pos 13140
telp: 8506428",East Jakarta,Market,-6.1975865,106.8577233
Pasar Rawabening,"Jl. Raya Bekasi Barat, 007/02 Kel.Rawa Bunga Kec.Jatinegara. Kode-pos 13350
telp: 8197064",East Jakarta,Market,-6.215825766,106.8695961
Pertokoan Waru,"Jl. Jatinegara Barat Kel.Rawabunga
telp: 8197064",East Jakarta,Market,-6.2240175,106.8660262
Pasar Bidadari,"Jl. Kayu Putih 1-2 Kel.Pulo Gadung Kec.Pulo Gadung
telp: 4711916",East Jakarta,Market,-6.18167745,106.894224
Pasar Cakung,"Jl. Raya Bekasi Kel.Cakung Barat Kec.Cakung
telp : -",East Jakarta,Market,-6.18303305,106.9344836
Pasar Cipinang Besar,"Jl. Jendral Basuki Rachmat Kel. Cipinang Besar Selatan Kec.Jatinegara. Kode pos 13410
telp : -",East Jakarta,Market,-6.2262344,106.8810561
Pasar Cipinang Kebembem,"Jl. Raya Cipinang Kebembem Kel.Cipinang Kec.Pulo Gadung. Kode-pos 13240
telp: 4899589 / 4710615",East Jakarta,Market,-6.21157505,106.8871975
Pasar Cipinang Muara,"Jl. BB, 005/04 Kel.Cipinang Muara Kec.Jatinegara . Kode-pos 14320
telp: 8512172",East Jakarta,Market,-6.22091095,106.8892207
Pasar Duren Sawit,"Jl. Raya Duren Sawit Kel.Klender Kec.Duren Sawit
telp: 86609227",East Jakarta,Market,-6.227518,106.9062892
Pasar Kampung Ambon,"Jl. Pondasi Raya Kel.Kayu Putih Kec. Pulo Gadung
telp: 4703372",East Jakarta,Market,-6.18615195,106.8843815
Pasar Kayu Jati,"Jl. Rawamangun Tegalan, 001/03 Kel.Rawamangun Kec.Pulo Gadung. Kode-pos 13220
telp : -",East Jakarta,Market,-6.191593221,106.8839773
Pasar Klender SS,"Jl. Raya Bekasi Timur Kel.Jatinegara Kec.Cakung
telp : -",East Jakarta,Market,-6.21275705,106.9019178
Pasar Pondok Bambu,"Jl. Kejaksaan Kel.Pondok Bambu Kec.Duren Sawit .Kode-pos 13430
telp: 8604117",East Jakarta,Market,-6.1832167,106.8097022
Pasar Prumpung Tengah (Eks TPS Pasar Cipinang Besar),"Jl. Jendral Basuki Rachmat
telp : -",East Jakarta,Market,-6.226371301,106.8809017
Pasar Pulogadung,"Jl . Raya Bekasi Timur Kel. Jatinegara Kaum Kec.Pulo Gadung
telp: 4712016 / 4711975",East Jakarta,Market,-6.186861934,106.9054642
Pasar Rawamangun,"Jl. Pegambiran Raya Kel.Rawamangun Kec.Pulogadung
telp: 4715087",East Jakarta,Market,-6.1984795,106.8897448
Pasar Sawah Barat,"Jl. Cempaka Kel.Duren Sawit Kec.Duren Sawit
telp : -",East Jakarta,Market,-6.227518,106.9062892
Pasar Sunan Giri,"Jl. Sunan Giri. Kode-pos 12030
telp: 4897484",East Jakarta,Market,-6.1961705,106.8826366
Pasar Ujung Menteng,"Jl. Raya Bekasi Kel.Ujung Menteng Kec.Cakung
telp: 46828978",East Jakarta,Market,-6.2215235,106.8383467
